{
  "norad_id": 53665,
  "name": "STARLINK-4334",
  "history": [
    {
      "epoch": "2026-03-28T22:17:21.719904",
      "apogee_km": 534.4673663220756,
      "perigee_km": 531.6082133115278,
      "latitude_deg": 66.5332416881316,
      "longitude_deg": -4.342533440096304,
      "semi_major_axis_km": 6911.174789816801,
      "eccentricity": 0.00020685,
      "inclination_deg": 97.6034,
      "raan_deg": 330.3049,
      "arg_perigee_deg": 86.7308,
      "mean_anomaly_deg": 273.4158,
      "mean_motion_rev_day": 15.11036471
    },
    {
      "epoch": "2026-03-29T04:38:47.520384",
      "apogee_km": 534.4860551150568,
      "perigee_km": 531.5750713374264,
      "latitude_deg": 16.674884351972615,
      "longitude_deg": 21.086133760167286,
      "semi_major_axis_km": 6911.167563226241,
      "eccentricity": 0.0002106,
      "inclination_deg": 97.6032,
      "raan_deg": 330.5676,
      "arg_perigee_deg": 85.1198,
      "mean_anomaly_deg": 275.0272,
      "mean_motion_rev_day": 15.11038841
    }
  ]
}